METEOSAT-11 (MSG-4)     
1 40732U 15034A   26063.15886770  .00000051  00000+0  00000+0 0  9992
2 40732   2.9369  71.6822 0001802 270.6697 246.1513  1.00266022  6165
ELEKTRO-L 2             
1 41105U 15074A   26062.86880331 -.00000128  00000+0  00000+0 0  9991
2 41105   6.4296  71.8188 0003467 237.1165 150.9510  1.00270829 37457
INSAT-3DR               
1 41752U 16054A   26063.03636441 -.00000090  00000+0  00000+0 0  9997
2 41752   0.0462  96.8444 0013284 184.8908 327.1218  1.00272377 34767
HIMAWARI-9              
1 41836U 16064A   26062.97090335 -.00000288  00000+0  00000+0 0  9998
2 41836   0.0152 182.6424 0001152 183.5546 285.8263  1.00272405 34158
GOES 16                 
1 41866U 16071A   26063.13624759 -.00000103  00000+0  00000+0 0  9997
2 41866   0.1467  90.1405 0002533 217.9627 158.1288  1.00271707 34051
FENGYUN 4A              
1 41882U 16077A   26063.13308794 -.00000369  00000+0  00000+0 0  9993
2 41882   2.0552  81.4150 0007465 135.8137 116.1229  1.00279325 33870
CYGFM05                 
1 41884U 16078A   26062.84689904  .00031788  00000+0  51340-3 0  9993
2 41884  34.9567 235.7040 0006974 235.4679 124.5385 15.51825158512359
CYGFM04                 
1 41885U 16078B   26062.78056128  .00036077  00000+0  51484-3 0  9998
2 41885  34.9325 208.4221 0006128 268.4132  91.5890 15.55205696512549
CYGFM02                 
1 41886U 16078C   26062.81851294  .00093522  00000+0  12223-2 0  9995
2 41886  34.9409 205.1979 0007089 269.4445  90.5466 15.57345041512697
CYGFM01                 
1 41887U 16078D   26062.87573570  .00033232  00000+0  52817-3 0  9996
2 41887  34.9394 237.3329 0006623 227.7937 132.2224 15.52264938512307
CYGFM08                 
1 41888U 16078E   26062.86138854  .00034512  00000+0  51958-3 0  9995
2 41888  34.9430 219.3646 0008152 252.2571 107.7263 15.53739040512545
CYGFM07                 
1 41890U 16078G   26062.83054931  .00035434  00000+0  52035-3 0  9999
2 41890  34.9450 208.0525 0006664 272.2402  87.7559 15.54427216512569
CYGFM03                 
1 41891U 16078H   26062.73744027  .00034759  00000+0  51041-3 0  9996
2 41891  34.9404 210.6464 0005940 256.6776 103.3285 15.54436642512526
FENGYUN 3D              
1 43010U 17072A   26063.20949678  .00000203  00000+0  11756-3 0  9994
2 43010  99.0015  35.7954 0001864  24.4605 335.6658 14.19713019430095
NOAA 20 (JPSS-1)        
1 43013U 17073A   26062.97812112  .00000103  00000+0  69758-4 0  9998
2 43013  98.7686   3.4223 0000939 145.1836 214.9401 14.19534337429545
GOES 17                 
1 43226U 18022A   26063.18586576 -.00000194  00000+0  00000+0 0  9996
2 43226   0.6676  87.5597 0002262 221.3824 190.3972  1.00270371 29372
FENGYUN 2H              
1 43491U 18050A   26063.10132078 -.00000139  00000+0  00000+0 0  9996
2 43491   2.7598  80.3634 0001718 173.9540  23.0784  1.00272888 28385
